STARLINK-2461           
1 48428U 21040A   26068.52355379 -.00000247  00000+0  37803-5 0  9993
2 48428  53.1634 179.5041 0001422  95.7277 264.3886 15.30208541266654
HAWK-11C                
1 62381U 24247E   26068.51221537  .00009223  00000+0  33290-3 0  9992
2 62381  45.0045 114.8762 0005900 329.7040  30.3502 15.28848020 67743
